{
  "type": "FeatureCollection",
  "features": [
    {
      "type": "Feature",
      "properties": {
        "norad_id": 41773,
        "name": "SKYSAT-C2",
        "group": "resource",
        "lat": -5.657654288880444,
        "lon": -161.72892146180234,
        "alt_km": 459.865149594435,
        "timestamp": "2025-12-20T18:51:31.375427+00:00",
        "meta_object_name": "SKYSAT-C2",
        "meta_object_id": "2016-058D",
        "meta_epoch": "2025-12-20T00:52:16.860864",
        "meta_mean_motion": 15.37425568,
        "meta_eccentricity": 0.00034481,
        "meta_inclination": 97.035,
        "meta_ra_of_asc_node": 18.2542,
        "meta_arg_of_pericenter": 14.0685,
        "meta_mean_anomaly": 346.0656,
        "meta_ephemeris_type": 0,
        "meta_classification_type": "U",
        "meta_norad_cat_id": 41773,
        "meta_element_set_no": 999,
        "meta_rev_at_epoch": 51748,
        "meta_bstar": 0.0002251688,
        "meta_mean_motion_dot": 8.187e-05,
        "meta_mean_motion_ddot": 0,
        "tle_line1": "1 41773U 16058D   25354.03630626  .00008187  00000+0  22517-3 0  9990",
        "tle_line2": "2 41773  97.0350  18.2542 0003448  14.0685 346.0656 15.37425568517484"
      },
      "geometry": {
        "type": "Point",
        "coordinates": [
          -161.72892146180234,
          -5.657654288880444
        ]
      }
    },
    {
      "type": "Feature",
      "properties": {
        "norad_id": 41774,
        "name": "SKYSAT-C3",
        "group": "resource",
        "lat": -41.44918322011749,
        "lon": -158.00719142096577,
        "alt_km": 439.61285434469664,
        "timestamp": "2025-12-20T18:51:31.375437+00:00",
        "meta_object_name": "SKYSAT-C3",
        "meta_object_id": "2016-058E",
        "meta_epoch": "2025-12-20T08:34:23.687904",
        "meta_mean_motion": 15.44652608,
        "meta_eccentricity": 0.0001932,
        "meta_inclination": 96.9286,
        "meta_ra_of_asc_node": 27.7493,
        "meta_arg_of_pericenter": 107.595,
        "meta_mean_anomaly": 252.5511,
        "meta_ephemeris_type": 0,
        "meta_classification_type": "U",
        "meta_norad_cat_id": 41774,
        "meta_element_set_no": 999,
        "meta_rev_at_epoch": 51843,
        "meta_bstar": 0.0002841356,
        "meta_mean_motion_dot": 0.00013163,
        "meta_mean_motion_ddot": 0,
        "tle_line1": "1 41774U 16058E   25354.35721861  .00013163  00000+0  28414-3 0  9990",
        "tle_line2": "2 41774  96.9286  27.7493 0001932 107.5950 252.5511 15.44652608518432"
      },
      "geometry": {
        "type": "Point",
        "coordinates": [
          -158.00719142096577,
          -41.44918322011749
        ]
      }
    },
    {
      "type": "Feature",
      "properties": {
        "norad_id": 41785,
        "name": "ALSAT 1B",
        "group": "resource",
        "lat": 34.44198863949692,
        "lon": -168.39111540737144,
        "alt_km": 648.9178181961606,
        "timestamp": "2025-12-20T18:51:31.375448+00:00",
        "meta_object_name": "ALSAT 1B",
        "meta_object_id": "2016-059C",
        "meta_epoch": "2025-12-20T13:18:31.773888",
        "meta_mean_motion": 14.72084999,
        "meta_eccentricity": 0.00108163,
        "meta_inclination": 97.7805,
        "meta_ra_of_asc_node": 6.0073,
        "meta_arg_of_pericenter": 81.3576,
        "meta_mean_anomaly": 278.8857,
        "meta_ephemeris_type": 0,
        "meta_classification_type": "U",
        "meta_norad_cat_id": 41785,
        "meta_element_set_no": 999,
        "meta_rev_at_epoch": 49429,
        "meta_bstar": 0.00014100436,
        "meta_mean_motion_dot": 8.4e-06,
        "meta_mean_motion_ddot": 0,
        "tle_line1": "1 41785U 16059C   25354.55453442  .00000840  00000+0  14100-3 0  9997",
        "tle_line2": "2 41785  97.7805   6.0073 0010816  81.3576 278.8857 14.72084999494291"
      },
      "geometry": {
        "type": "Point",
        "coordinates": [
          -168.39111540737144,
          34.44198863949692
        ]
      }
    },
    {
      "type": "Feature",
      "properties": {
        "norad_id": 41787,
        "name": "PATHFINDER 1",
        "group": "resource",
        "lat": 81.36180440305858,
        "lon": -67.48588469270238,
        "alt_km": 643.862958205561,
        "timestamp": "2025-12-20T18:51:31.375458+00:00",
        "meta_object_name": "PATHFINDER 1",
        "meta_object_id": "2016-059E",
        "meta_epoch": "2025-12-19T22:49:46.698816",
        "meta_mean_motion": 14.67332832,
        "meta_eccentricity": 0.0029853,
        "meta_inclination": 97.8135,
        "meta_ra_of_asc_node": 356.3902,
        "meta_arg_of_pericenter": 59.2562,
        "meta_mean_anomaly": 301.1577,
        "meta_ephemeris_type": 0,
        "meta_classification_type": "U",
        "meta_norad_cat_id": 41787,
        "meta_element_set_no": 999,
        "meta_rev_at_epoch": 49342,
        "meta_bstar": 0.0001042,
        "meta_mean_motion_dot": 5.46e-06,
        "meta_mean_motion_ddot": 0,
        "tle_line1": "1 41787U 16059E   25353.95123494  .00000546  00000+0  10420-3 0  9997",
        "tle_line2": "2 41787  97.8135 356.3902 0029853  59.2562 301.1577 14.67332832493421"
      },
      "geometry": {
        "type": "Point",
        "coordinates": [
          -67.48588469270238,
          81.36180440305858
        ]
      }
    },
    {
      "type": "Feature",
      "properties": {
        "norad_id": 41790,
        "name": "SCATSAT 1",
        "group": "resource",
        "lat": 53.78666699769292,
        "lon": 40.27666969331483,
        "alt_km": 600.9005459796854,
        "timestamp": "2025-12-20T18:51:31.375468+00:00",
        "meta_object_name": "SCATSAT 1",
        "meta_object_id": "2016-059H",
        "meta_epoch": "2025-12-20T03:59:58.946208",
        "meta_mean_motion": 14.78958781,
        "meta_eccentricity": 0.00564467,
        "meta_inclination": 98.1453,
        "meta_ra_of_asc_node": 50.9294,
        "meta_arg_of_pericenter": 104.5786,
        "meta_mean_anomaly": 256.1694,
        "meta_ephemeris_type": 0,
        "meta_classification_type": "U",
        "meta_norad_cat_id": 41790,
        "meta_element_set_no": 999,
        "meta_rev_at_epoch": 7512,
        "meta_bstar": 0.00013990591,
        "meta_mean_motion_dot": 1.004e-05,
        "meta_mean_motion_ddot": 0,
        "tle_line1": "1 41790U 16059H   25354.16665447  .00001004  00000+0  13991-3 0  9990",
        "tle_line2": "2 41790  98.1453  50.9294 0056446 104.5786 256.1694 14.78958781 75124"
      },
      "geometry": {
        "type": "Point",
        "coordinates": [
          40.27666969331483,
          53.78666699769292
        ]
      }
    },
    {
      "type": "Feature",
      "properties": {
        "norad_id": 41875,
        "name": "GOKTURK 1A",
        "group": "resource",
        "lat": 31.65416347898322,
        "lon": -118.02126856973595,
        "alt_km": 681.8252127941496,
        "timestamp": "2025-12-20T18:51:31.375478+00:00",
        "meta_object_name": "GOKTURK 1A",
        "meta_object_id": "2016-073A",
        "meta_epoch": "2025-12-20T15:25:46.133184",
        "meta_mean_motion": 14.62787636,
        "meta_eccentricity": 0.00012552,
        "meta_inclination": 98.1436,
        "meta_ra_of_asc_node": 246.9024,
        "meta_arg_of_pericenter": 82.6173,
        "meta_mean_anomaly": 277.5172,
        "meta_ephemeris_type": 0,
        "meta_classification_type": "U",
        "meta_norad_cat_id": 41875,
        "meta_element_set_no": 999,
        "meta_rev_at_epoch": 48272,
        "meta_bstar": 5.4155609e-05,
        "meta_mean_motion_dot": 2.29e-06,
        "meta_mean_motion_ddot": 0,
        "tle_line1": "1 41875U 16073A   25354.64289506  .00000229  00000+0  54156-4 0  9998",
        "tle_line2": "2 41875  98.1436 246.9024 0001255  82.6173 277.5172 14.62787636482729"
      },
      "geometry": {
        "type": "Point",
        "coordinates": [
          -118.02126856973595,
          31.65416347898322
        ]
      }
    },
    {
      "type": "Feature",
      "properties": {
        "norad_id": 41877,
        "name": "RESOURCESAT-2A",
        "group": "resource",
        "lat": -29.546880753439574,
        "lon": 69.61852424095589,
        "alt_km": 826.186682590499,
        "timestamp": "2025-12-20T18:51:31.375488+00:00",
        "meta_object_name": "RESOURCESAT-2A",
        "meta_object_id": "2016-074A",
        "meta_epoch": "2025-12-20T13:55:54.050016",
        "meta_mean_motion": 14.21603449,
        "meta_eccentricity": 0.00013876,
        "meta_inclination": 98.7754,
        "meta_ra_of_asc_node": 64.3912,
        "meta_arg_of_pericenter": 217.7733,
        "meta_mean_anomaly": 142.3347,
        "meta_ephemeris_type": 0,
        "meta_classification_type": "U",
        "meta_norad_cat_id": 41877,
        "meta_element_set_no": 999,
        "meta_rev_at_epoch": 46892,
        "meta_bstar": 0.00013057279,
        "meta_mean_motion_dot": 2.42e-06,
        "meta_mean_motion_ddot": 0,
        "tle_line1": "1 41877U 16074A   25354.58048669  .00000242  00000+0  13057-3 0  9996",
        "tle_line2": "2 41877  98.7754  64.3912 0001387 217.7733 142.3347 14.21603449468920"
      },
      "geometry": {
        "type": "Point",
        "coordinates": [
          69.61852424095589,
          -29.546880753439574
        ]
      }
    }
  ]
}